{"type": "FeatureCollection", "features": [ {"type": "Feature", "properties": {"norad_id": 31210, "name": "FENGYUN 1C DEB", "group": "fengyun-1c-debris", "lat": 75.18802541414803, "lon": -148.49620687644781, "alt_km": 834.3527293667694, "timestamp": "2025-12-21T05:44:51.866844+00:00", "meta": {"OBJECT_NAME": "FENGYUN 1C DEB", "OBJECT_ID": "1999-025BKQ", "EPOCH": "2025-12-20T05:44:41.256096", "MEAN_MOTION": 14.12005396, "ECCENTRICITY": 0.0017465, "INCLINATION": 98.7185, "RA_OF_ASC_NODE": 355.0606, "ARG_OF_PERICENTER": 134.4184, "MEAN_ANOMALY": 286.6721, "EPHEMERIS_TYPE": 0, "CLASSIFICATION_TYPE": "U", "NORAD_CAT_ID": 31210, "ELEMENT_SET_NO": 999, "REV_AT_EPOCH": 96073, "BSTAR": 0.00028459, "MEAN_MOTION_DOT": 4.79e-06, "MEAN_MOTION_DDOT": 0}, "tle": {"line1": "1 31210U 99025BKQ 25354.23936639  .00000479  00000+0  28459-3 0  9992", "line2": "2 31210  98.7185 355.0606 0017465 134.4184 286.6721 14.12005396960738"}}, "geometry": {"type": "Point", "coordinates": [-148.49620687644781, 75.18802541414803]}}, {"type": "Feature", "properties": {"norad_id": 31211, "name": "FENGYUN 1C DEB", "group": "fengyun-1c-debris", "lat": 40.99737501214014, "lon": -141.39615439097446, "alt_km": 811.1347883783246, "timestamp": "2025-12-21T05:44:51.866854+00:00", "meta": {"OBJECT_NAME": "FENGYUN 1C DEB", "OBJECT_ID": "1999-025BKR", "EPOCH": "2025-12-18T21:18:02.771712", "MEAN_MOTION": 14.2007878, "ECCENTRICITY": 0.00504135, "INCLINATION": 98.6726, "RA_OF_ASC_NODE": 28.6751, "ARG_OF_PERICENTER": 71.8452, "MEAN_ANOMALY": 288.8205, "EPHEMERIS_TYPE": 0, "CLASSIFICATION_TYPE": "U", "NORAD_CAT_ID": 31211, "ELEMENT_SET_NO": 999, "REV_AT_EPOCH": 63380, "BSTAR": 0.00079976901, "MEAN_MOTION_DOT": 1.683e-05, "MEAN_MOTION_DDOT": 0}, "tle": {"line1": "1 31211U 99025BKR 25352.88753208  .00001683  00000+0  79977-3 0  9990", "line2": "2 31211  98.6726  28.6751 0050413  71.8452 288.8205 14.20078780633807"}}, "geometry": {"type": "Point", "coordinates": [-141.39615439097446, 40.99737501214014]}}, {"type": "Feature", "properties": {"norad_id": 31212, "name": "FENGYUN 1C DEB", "group": "fengyun-1c-debris", "lat": -79.90129802709957, "lon": 141.18326172340977, "alt_km": 880.8012474098396, "timestamp": "2025-12-21T05:44:51.866864+00:00", "meta": {"OBJECT_NAME": "FENGYUN 1C DEB", "OBJECT_ID": "1999-025BKS", "EPOCH": "2025-12-14T12:45:56.653344", "MEAN_MOTION": 14.13124373, "ECCENTRICITY": 0.00752745, "INCLINATION": 99.2196, "RA_OF_ASC_NODE": 20.0508, "ARG_OF_PERICENTER": 167.0098, "MEAN_ANOMALY": 193.3035, "EPHEMERIS_TYPE": 0, "CLASSIFICATION_TYPE": "U", "NORAD_CAT_ID": 31212, "ELEMENT_SET_NO": 999, "REV_AT_EPOCH": 95684, "BSTAR": 0.0014706798, "MEAN_MOTION_DOT": 2.778e-05, "MEAN_MOTION_DDOT": 0}, "tle": {"line1": "1 31212U 99025BKS 25348.53190571  .00002778  00000+0  14707-2 0  9991", "line2": "2 31212  99.2196  20.0508 0075274 167.0098 193.3035 14.13124373956843"}}, "geometry": {"type": "Point", "coordinates": [141.18326172340977, -79.90129802709957]}}, {"type": "Feature", "properties": {"norad_id": 31215, "name": "FENGYUN 1C DEB", "group": "fengyun-1c-debris", "lat": 21.892180951705086, "lon": 23.39033313046775, "alt_km": 817.8641647346067, "timestamp": "2025-12-21T05:44:51.866874+00:00", "meta": {"OBJECT_NAME": "FENGYUN 1C DEB", "OBJECT_ID": "1999-025BKV", "EPOCH": "2025-12-20T18:57:37.311552", "MEAN_MOTION": 14.33825554, "ECCENTRICITY": 0.00698283, "INCLINATION": 99.0704, "RA_OF_ASC_NODE": 199.2388, "ARG_OF_PERICENTER": 300.9021, "MEAN_ANOMALY": 58.5309, "EPHEMERIS_TYPE": 0, "CLASSIFICATION_TYPE": "U", "NORAD_CAT_ID": 31215, "ELEMENT_SET_NO": 999, "REV_AT_EPOCH": 96641, "BSTAR": 0.00060930469, "MEAN_MOTION_DOT": 1.693e-05, "MEAN_MOTION_DDOT": 0}, "tle": {"line1": "1 31215U 99025BKV 25354.79001518  .00001693  00000+0  60930-3 0  9996", "line2": "2 31215  99.0704 199.2388 0069828 300.9021  58.5309 14.33825554966417"}}, "geometry": {"type": "Point", "coordinates": [23.39033313046775, 21.892180951705086]}}, {"type": "Feature", "properties": {"norad_id": 31217, "name": "FENGYUN 1C DEB", "group": "fengyun-1c-debris", "lat": 4.066146124486721, "lon": -176.48741832427706, "alt_km": 780.5861355987063, "timestamp": "2025-12-21T05:44:51.866884+00:00", "meta": {"OBJECT_NAME": "FENGYUN 1C DEB", "OBJECT_ID": "1999-025BKX", "EPOCH": "2025-12-17T17:55:15.855456", "MEAN_MOTION": 14.17549567, "ECCENTRICITY": 0.0099896, "INCLINATION": 98.6404, "RA_OF_ASC_NODE": 359.4964, "ARG_OF_PERICENTER": 145.7057, "MEAN_ANOMALY": 215.0622, "EPHEMERIS_TYPE": 0, "CLASSIFICATION_TYPE": "U", "NORAD_CAT_ID": 31217, "ELEMENT_SET_NO": 999, "REV_AT_EPOCH": 96419, "BSTAR": 0.00045754541, "MEAN_MOTION_DOT": 9.34e-06, "MEAN_MOTION_DDOT": 0}, "tle": {"line1": "1 31217U 99025BKX 25351.74671129  .00000934  00000+0  45755-3 0  9996", "line2": "2 31217  98.6404 359.4964 0099896 145.7057 215.0622 14.17549567964193"}}, "geometry": {"type": "Point", "coordinates": [-176.48741832427706, 4.066146124486721]}}, {"type": "Feature", "properties": {"norad_id": 31218, "name": "FENGYUN 1C DEB", "group": "fengyun-1c-debris", "lat": -42.54927134542084, "lon": 114.37912541683703, "alt_km": 652.5048211962794, "timestamp": "2025-12-21T05:44:51.866894+00:00", "meta": {"OBJECT_NAME": "FENGYUN 1C DEB", "OBJECT_ID": "1999-025BKY", "EPOCH": "2025-12-19T06:39:31.870944", "MEAN_MOTION": 14.72783214, "ECCENTRICITY": 0.0011838, "INCLINATION": 98.8431, "RA_OF_ASC_NODE": 104.029, "ARG_OF_PERICENTER": 6.0846, "MEAN_ANOMALY": 354.0501, "EPHEMERIS_TYPE": 0, "CLASSIFICATION_TYPE": "U", "NORAD_CAT_ID": 31218, "ELEMENT_SET_NO": 999, "REV_AT_EPOCH": 97179, "BSTAR": 0.0026727, "MEAN_MOTION_DOT": 0.00017081, "MEAN_MOTION_DDOT": 0}, "tle": {"line1": "1 31218U 99025BKY 25353.27745221  .00017081  00000+0  26727-2 0  9990", "line2": "2 31218  98.8431 104.0290 0011838   6.0846 354.0501 14.72783214971791"}}, "geometry": {"type": "Point", "coordinates": [114.37912541683703, -42.54927134542084]}}, {"type": "Feature", "properties": {"norad_id": 31219, "name": "FENGYUN 1C DEB", "group": "fengyun-1c-debris", "lat": 0.5994608200692683, "lon": -174.48018237949435, "alt_km": 797.5382015248852, "timestamp": "2025-12-21T05:44:51.866905+00:00", "meta": {"OBJECT_NAME": "FENGYUN 1C DEB", "OBJECT_ID": "1999-025BKZ", "EPOCH": "2025-12-20T00:01:56.044704", "MEAN_MOTION": 14.13821823, "ECCENTRICITY": 0.00791976, "INCLINATION": 99.2838, "RA_OF_ASC_NODE": 4.1367, "ARG_OF_PERICENTER": 156.8801, "MEAN_ANOMALY": 203.5965, "EPHEMERIS_TYPE": 0, "CLASSIFICATION_TYPE": "U", "NORAD_CAT_ID": 31219, "ELEMENT_SET_NO": 999, "REV_AT_EPOCH": 95672, "BSTAR": 0.00086388981, "MEAN_MOTION_DOT": 1.638e-05, "MEAN_MOTION_DDOT": 0}, "tle": {"line1": "1 31219U 99025BKZ 25354.00134311  .00001638  00000+0  86389-3 0  9997", "line2": "2 31219  99.2838   4.1367 0079197 156.8801 203.5965 14.13821823956722"}}, "geometry": {"type": "Point", "coordinates": [-174.48018237949435, 0.5994608200692683]}}, {"type": "Feature", "properties": {"norad_id": 31222, "name": "FENGYUN 1C DEB", "group": "fengyun-1c-debris", "lat": 54.16085825665413, "lon": 53.971975315285505, "alt_km": 452.8470933787048, "timestamp": "2025-12-21T05:44:51.866915+00:00", "meta": {"OBJECT_NAME": "FENGYUN 1C DEB", "OBJECT_ID": "1999-025BLC", "EPOCH": "2025-12-19T03:48:46.221120", "MEAN_MOTION": 14.97926386, "ECCENTRICITY": 0.01702067, "INCLINATION": 98.6154, "RA_OF_ASC_NODE": 63.794, "ARG_OF_PERICENTER": 48.6685, "MEAN_ANOMALY": 312.9038, "EPHEMERIS_TYPE": 0, "CLASSIFICATION_TYPE": "U", "NORAD_CAT_ID": 31222, "ELEMENT_SET_NO": 999, "REV_AT_EPOCH": 79, "BSTAR": 0.00047463216, "MEAN_MOTION_DOT": 7.472e-05, "MEAN_MOTION_DDOT": 0}, "tle": {"line1": "1 31222U 99025BLC 25353.15886830  .00007472  00000+0  47463-3 0  9998", "line2": "2 31222  98.6154  63.7940 0170206  48.6685 312.9038 14.97926386   794"}}, "geometry": {"type": "Point", "coordinates": [53.971975315285505, 54.16085825665413]}}, {"type": "Feature", "properties": {"norad_id": 31223, "name": "FENGYUN 1C DEB", "group": "fengyun-1c-debris", "lat": 76.8722566540249, "lon": -161.7291318973967, "alt_km": 878.5286572150408, "timestamp": "2025-12-21T05:44:51.866925+00:00", "meta": {"OBJECT_NAME": "FENGYUN 1C DEB", "OBJECT_ID": "1999-025BLD", "EPOCH": "2025-12-20T15:25:38.218944", "MEAN_MOTION": 13.77291138, "ECCENTRICITY": 0.02440292, "INCLINATION": 99.0064, "RA_OF_ASC_NODE": 240.5512, "ARG_OF_PERICENTER": 20.0497, "MEAN_ANOMALY": 341.0043, "EPHEMERIS_TYPE": 0, "CLASSIFICATION_TYPE": "U", "NORAD_CAT_ID": 31223, "ELEMENT_SET_NO": 999, "REV_AT_EPOCH": 92837, "BSTAR": 0.0020350073, "MEAN_MOTION_DOT": 2.475e-05, "MEAN_MOTION_DDOT": 0}, "tle": {"line1": "1 31223U 99025BLD 25354.64280346  .00002475  00000+0  20350-2 0  9997", "line2": "2 31223  99.0064 240.5512 0244029  20.0497 341.0043 13.77291138928379"}}, "geometry": {"type": "Point", "coordinates": [-161.7291318973967, 76.8722566540249]}}, {"type": "Feature", "properties": {"norad_id": 31224, "name": "FENGYUN 1C DEB", "group": "fengyun-1c-debris", "lat": 62.60621054903679, "lon": -29.709056568095235, "alt_km": 756.2009646175666, "timestamp": "2025-12-21T05:44:51.866935+00:00", "meta": {"OBJECT_NAME": "FENGYUN 1C DEB", "OBJECT_ID": "1999-025BLE", "EPOCH": "2025-12-17T05:43:55.673184", "MEAN_MOTION": 14.28902802, "ECCENTRICITY": 0.01582842, "INCLINATION": 98.3697, "RA_OF_ASC_NODE": 342.954, "ARG_OF_PERICENTER": 149.6216, "MEAN_ANOMALY": 228.2145, "EPHEMERIS_TYPE": 0, "CLASSIFICATION_TYPE": "U", "NORAD_CAT_ID": 31224, "ELEMENT_SET_NO": 999, "REV_AT_EPOCH": 69315, "BSTAR": 0.00023481345, "MEAN_MOTION_DOT": 6.35e-06, "MEAN_MOTION_DDOT": 0}, "tle": {"line1": "1 31224U 99025BLE 25351.23883881  .00000635  00000+0  23481-3 0  9998", "line2": "2 31224  98.3697 342.9540 0158284 149.6216 228.2145 14.28902802693154"}}, "geometry": {"type": "Point", "coordinates": [-29.709056568095235, 62.60621054903679]}}]}